{"type": "FeatureCollection", "features": [ {"type": "Feature", "properties": {"norad_id": 41175, "name": "GSAT0208 (GALILEO 11)", "group": "galileo", "lat": -4.301205150270175, "lon": -70.7522677204057, "alt_km": 23228.514987910687, "timestamp": "2025-12-14T18:52:55.766293+00:00", "meta": {"OBJECT_NAME": "GSAT0208 (GALILEO 11)", "OBJECT_ID": "2015-079B", "EPOCH": "2025-12-12T17:24:26.771040", "MEAN_MOTION": 1.70474307, "ECCENTRICITY": 0.00018806, "INCLINATION": 55.7111, "RA_OF_ASC_NODE": 106.3784, "ARG_OF_PERICENTER": 358.3144, "MEAN_ANOMALY": 1.6545, "EPHEMERIS_TYPE": 0, "CLASSIFICATION_TYPE": "U", "NORAD_CAT_ID": 41175, "ELEMENT_SET_NO": 999, "REV_AT_EPOCH": 6201, "BSTAR": 0, "MEAN_MOTION_DOT": 4e-08, "MEAN_MOTION_DDOT": 0}, "tle": {"line1": "1 41175U 15079B   25346.72530985  .00000004  00000+0  00000+0 0  9991", "line2": "2 41175  55.7111 106.3784 0001880 358.3144   1.6545  1.70474307 62017"}}, "geometry": {"type": "Point", "coordinates": [-70.7522677204057, -4.301205150270175]}}, {"type": "Feature", "properties": {"norad_id": 41549, "name": "GSAT0211 (GALILEO 14)", "group": "galileo", "lat": 50.86034520530396, "lon": -12.013354919283236, "alt_km": 23216.415035601283, "timestamp": "2025-12-14T18:52:55.766305+00:00", "meta": {"OBJECT_NAME": "GSAT0211 (GALILEO 14)", "OBJECT_ID": "2016-030A", "EPOCH": "2025-12-11T02:09:03.353760", "MEAN_MOTION": 1.70473055, "ECCENTRICITY": 0.00041282, "INCLINATION": 55.1527, "RA_OF_ASC_NODE": 226.8689, "ARG_OF_PERICENTER": 18.4657, "MEAN_ANOMALY": 341.6286, "EPHEMERIS_TYPE": 0, "CLASSIFICATION_TYPE": "U", "NORAD_CAT_ID": 41549, "ELEMENT_SET_NO": 999, "REV_AT_EPOCH": 5946, "BSTAR": 0, "MEAN_MOTION_DOT": 9e-08, "MEAN_MOTION_DDOT": 0}, "tle": {"line1": "1 41549U 16030A   25345.08962215  .00000009  00000+0  00000+0 0  9992", "line2": "2 41549  55.1527 226.8689 0004128  18.4657 341.6286  1.70473055 59463"}}, "geometry": {"type": "Point", "coordinates": [-12.013354919283236, 50.86034520530396]}}, {"type": "Feature", "properties": {"norad_id": 41550, "name": "GSAT0210 (GALILEO 13)", "group": "galileo", "lat": -38.24045970420678, "lon": -166.4937266729005, "alt_km": 23225.558693882842, "timestamp": "2025-12-14T18:52:55.766317+00:00", "meta": {"OBJECT_NAME": "GSAT0210 (GALILEO 13)", "OBJECT_ID": "2016-030B", "EPOCH": "2025-12-11T08:19:41.751264", "MEAN_MOTION": 1.70473653, "ECCENTRICITY": 0.00011945, "INCLINATION": 55.152, "RA_OF_ASC_NODE": 226.8599, "ARG_OF_PERICENTER": 242.2312, "MEAN_ANOMALY": 117.8354, "EPHEMERIS_TYPE": 0, "CLASSIFICATION_TYPE": "U", "NORAD_CAT_ID": 41550, "ELEMENT_SET_NO": 999, "REV_AT_EPOCH": 5946, "BSTAR": 0, "MEAN_MOTION_DOT": 1e-07, "MEAN_MOTION_DDOT": 0}, "tle": {"line1": "1 41550U 16030B   25345.34701101  .00000010  00000+0  00000+0 0  9990", "line2": "2 41550  55.1520 226.8599 0001194 242.2312 117.8354  1.70473653 59466"}}, "geometry": {"type": "Point", "coordinates": [-166.4937266729005, -38.24045970420678]}}, {"type": "Feature", "properties": {"norad_id": 41859, "name": "GSAT0207 (GALILEO 15)", "group": "galileo", "lat": 31.720041611001495, "lon": -99.06857236350713, "alt_km": 23224.907067723914, "timestamp": "2025-12-14T18:52:55.766328+00:00", "meta": {"OBJECT_NAME": "GSAT0207 (GALILEO 15)", "OBJECT_ID": "2016-069A", "EPOCH": "2025-12-13T09:14:27.730752", "MEAN_MOTION": 1.70474447, "ECCENTRICITY": 0.00022423, "INCLINATION": 55.3826, "RA_OF_ASC_NODE": 106.2323, "ARG_OF_PERICENTER": 321.9482, "MEAN_ANOMALY": 38.0041, "EPHEMERIS_TYPE": 0, "CLASSIFICATION_TYPE": "U", "NORAD_CAT_ID": 41859, "ELEMENT_SET_NO": 999, "REV_AT_EPOCH": 5623, "BSTAR": 0, "MEAN_MOTION_DOT": 0, "MEAN_MOTION_DDOT": 0}, "tle": {"line1": "1 41859U 16069A   25347.38504318  .00000000  00000+0  00000+0 0  9990", "line2": "2 41859  55.3826 106.2323 0002242 321.9482  38.0041  1.70474447 56234"}}, "geometry": {"type": "Point", "coordinates": [-99.06857236350713, 31.720041611001495]}}, {"type": "Feature", "properties": {"norad_id": 41860, "name": "GSAT0212 (GALILEO 16)", "group": "galileo", "lat": -39.16802888852129, "lon": -39.61287846757961, "alt_km": 23232.725810449116, "timestamp": "2025-12-14T18:52:55.766340+00:00", "meta": {"OBJECT_NAME": "GSAT0212 (GALILEO 16)", "OBJECT_ID": "2016-069B", "EPOCH": "2025-12-11T11:29:42.448992", "MEAN_MOTION": 1.70474595, "ECCENTRICITY": 0.00021636, "INCLINATION": 55.3791, "RA_OF_ASC_NODE": 106.2805, "ARG_OF_PERICENTER": 27.6057, "MEAN_ANOMALY": 332.3763, "EPHEMERIS_TYPE": 0, "CLASSIFICATION_TYPE": "U", "NORAD_CAT_ID": 41860, "ELEMENT_SET_NO": 999, "REV_AT_EPOCH": 5645, "BSTAR": 0, "MEAN_MOTION_DOT": 8e-08, "MEAN_MOTION_DDOT": 0}, "tle": {"line1": "1 41860U 16069B   25345.47896353  .00000008  00000+0  00000+0 0  9991", "line2": "2 41860  55.3791 106.2805 0002163  27.6057 332.3763  1.70474595 56451"}}, "geometry": {"type": "Point", "coordinates": [-39.61287846757961, -39.16802888852129]}}, {"type": "Feature", "properties": {"norad_id": 41861, "name": "GSAT0213 (GALILEO 17)", "group": "galileo", "lat": 3.7045242940905747, "lon": 108.74436061450616, "alt_km": 23220.76196337781, "timestamp": "2025-12-14T18:52:55.766351+00:00", "meta": {"OBJECT_NAME": "GSAT0213 (GALILEO 17)", "OBJECT_ID": "2016-069C", "EPOCH": "2025-12-11T06:14:19.190112", "MEAN_MOTION": 1.70474845, "ECCENTRICITY": 0.00023572, "INCLINATION": 55.3813, "RA_OF_ASC_NODE": 106.2942, "ARG_OF_PERICENTER": 283.5833, "MEAN_ANOMALY": 76.361, "EPHEMERIS_TYPE": 0, "CLASSIFICATION_TYPE": "U", "NORAD_CAT_ID": 41861, "ELEMENT_SET_NO": 999, "REV_AT_EPOCH": 5631, "BSTAR": 0, "MEAN_MOTION_DOT": 9e-08, "MEAN_MOTION_DDOT": 0}, "tle": {"line1": "1 41861U 16069C   25345.25994433  .00000009  00000+0  00000+0 0  9997", "line2": "2 41861  55.3813 106.2942 0002357 283.5833  76.3610  1.70474845 56318"}}, "geometry": {"type": "Point", "coordinates": [108.74436061450616, 3.7045242940905747]}}, {"type": "Feature", "properties": {"norad_id": 41862, "name": "GSAT0214 (GALILEO 18)", "group": "galileo", "lat": -55.085968502208495, "lon": 24.758970494572793, "alt_km": 23224.09976157008, "timestamp": "2025-12-14T18:52:55.766363+00:00", "meta": {"OBJECT_NAME": "GSAT0214 (GALILEO 18)", "OBJECT_ID": "2016-069D", "EPOCH": "2025-12-12T13:53:54.735936", "MEAN_MOTION": 1.70474744, "ECCENTRICITY": 0.00013694, "INCLINATION": 55.3802, "RA_OF_ASC_NODE": 106.2504, "ARG_OF_PERICENTER": 290.3791, "MEAN_ANOMALY": 69.576, "EPHEMERIS_TYPE": 0, "CLASSIFICATION_TYPE": "U", "NORAD_CAT_ID": 41862, "ELEMENT_SET_NO": 999, "REV_AT_EPOCH": 5646, "BSTAR": 0, "MEAN_MOTION_DOT": 4e-08, "MEAN_MOTION_DDOT": 0}, "tle": {"line1": "1 41862U 16069D   25346.57910574  .00000004  00000+0  00000+0 0  9993", "line2": "2 41862  55.3802 106.2504 0001369 290.3791  69.5760  1.70474744 56466"}}, "geometry": {"type": "Point", "coordinates": [24.758970494572793, -55.085968502208495]}}, {"type": "Feature", "properties": {"norad_id": 43055, "name": "GSAT0215 (GALILEO 19)", "group": "galileo", "lat": -21.047251053185995, "lon": -148.96021493781913, "alt_km": 23221.461882405813, "timestamp": "2025-12-14T18:52:55.766374+00:00", "meta": {"OBJECT_NAME": "GSAT0215 (GALILEO 19)", "OBJECT_ID": "2017-079A", "EPOCH": "2025-12-11T21:30:24.060384", "MEAN_MOTION": 1.704739, "ECCENTRICITY": 0.00012658, "INCLINATION": 55.1303, "RA_OF_ASC_NODE": 226.661, "ARG_OF_PERICENTER": 350.6161, "MEAN_ANOMALY": 9.46, "EPHEMERIS_TYPE": 0, "CLASSIFICATION_TYPE": "U", "NORAD_CAT_ID": 43055, "ELEMENT_SET_NO": 999, "REV_AT_EPOCH": 4979, "BSTAR": 0, "MEAN_MOTION_DOT": 1.3e-07, "MEAN_MOTION_DDOT": 0}, "tle": {"line1": "1 43055U 17079A   25345.89611181  .00000013  00000+0  00000+0 0  9997", "line2": "2 43055  55.1303 226.6610 0001265 350.6161   9.4600  1.70473900 49794"}}, "geometry": {"type": "Point", "coordinates": [-148.96021493781913, -21.047251053185995]}}, {"type": "Feature", "properties": {"norad_id": 43056, "name": "GSAT0216 (GALILEO 20)", "group": "galileo", "lat": 20.04754058128742, "lon": 31.86277561843676, "alt_km": 23226.53357914414, "timestamp": "2025-12-14T18:52:55.766385+00:00", "meta": {"OBJECT_NAME": "GSAT0216 (GALILEO 20)", "OBJECT_ID": "2017-079B", "EPOCH": "2025-12-13T08:39:13.176288", "MEAN_MOTION": 1.70474029, "ECCENTRICITY": 0.00023036, "INCLINATION": 55.1302, "RA_OF_ASC_NODE": 226.6206, "ARG_OF_PERICENTER": 326.735, "MEAN_ANOMALY": 33.3311, "EPHEMERIS_TYPE": 0, "CLASSIFICATION_TYPE": "U", "NORAD_CAT_ID": 43056, "ELEMENT_SET_NO": 999, "REV_AT_EPOCH": 4983, "BSTAR": 0, "MEAN_MOTION_DOT": 2.3e-07, "MEAN_MOTION_DDOT": 0}, "tle": {"line1": "1 43056U 17079B   25347.36056917  .00000023  00000+0  00000+0 0  9993", "line2": "2 43056  55.1302 226.6206 0002303 326.7350  33.3311  1.70474029 49836"}}, "geometry": {"type": "Point", "coordinates": [31.86277561843676, 20.04754058128742]}}, {"type": "Feature", "properties": {"norad_id": 43057, "name": "GSAT0217 (GALILEO 21)", "group": "galileo", "lat": 16.168844700973043, "lon": -121.76027002026228, "alt_km": 23213.416131588234, "timestamp": "2025-12-14T18:52:55.766397+00:00", "meta": {"OBJECT_NAME": "GSAT0217 (GALILEO 21)", "OBJECT_ID": "2017-079C", "EPOCH": "2025-12-13T13:57:02.142720", "MEAN_MOTION": 1.70474015, "ECCENTRICITY": 0.00027963, "INCLINATION": 55.1281, "RA_OF_ASC_NODE": 226.6125, "ARG_OF_PERICENTER": 346.0332, "MEAN_ANOMALY": 14.0404, "EPHEMERIS_TYPE": 0, "CLASSIFICATION_TYPE": "U", "NORAD_CAT_ID": 43057, "ELEMENT_SET_NO": 999, "REV_AT_EPOCH": 4982, "BSTAR": 0, "MEAN_MOTION_DOT": 2.5e-07, "MEAN_MOTION_DDOT": 0}, "tle": {"line1": "1 43057U 17079C   25347.58127480  .00000025  00000+0  00000+0 0  9994", "line2": "2 43057  55.1281 226.6125 0002796 346.0332  14.0404  1.70474015 49827"}}, "geometry": {"type": "Point", "coordinates": [-121.76027002026228, 16.168844700973043]}}]}